start=new Date('2022-12-17T00:00:00.000Z').valueOf();
sats=[{"MEAN_MOTION_DDOT":"0.0000000000000","ELEMENT_SET_NO":"999","CLASSIFICATION_TYPE":"U","RA_OF_ASC_NODE":"264.0171","OBJECT_NAME":"STARLINK-1970","ARG_OF_PERICENTER":"69.5387","CENTER_NAME":"EARTH","REV_AT_EPOCH":"10324","TLE_LINE2":"2 47571  53.0558 264.0171 0001443  69.5387 290.5757 15.06406813103242","OBJECT_ID":"2021-009Z","GP_ID":"220660994","FILE":"3705029","REF_FRAME":"TEME","PERIAPSIS":"546.193","EPHEMERIS_TYPE":"0","OBJECT_TYPE":"PAYLOAD","MEAN_MOTION_DOT":"-0.00000148","SEMIMAJOR_AXIS":"6925.328","COUNTRY_CODE":"US","MEAN_MOTION":"15.06406813","EPOCH":"2022-12-16T18:25:42.354912","RCS_SIZE":"LARGE","TIME_SYSTEM":"UTC","SITE":"AFETR","NORAD_CAT_ID":"47571","MEAN_ANOMALY":"290.5757","PERIOD":"95.592","DECAY_DATE":null,"ECCENTRICITY":"0.00014430","BSTAR":"0.00000897600000","TLE_LINE1":"1 47571U 21009Z   22350.76785133 -.00000148  00000-0  89760-5 0  9997","LAUNCH_DATE":"2021-02-04","MEAN_ELEMENT_THEORY":"SGP4","APOAPSIS":"548.192","INCLINATION":"53.0558"},{"BSTAR":"0.00004993800000","ECCENTRICITY":"0.00014300","TLE_LINE1":"1 47572U 21009AA  22350.08595904  .00000462  00000-0  49938-4 0  9998","PERIOD":"95.592","DECAY_DATE":null,"INCLINATION":"53.0543","LAUNCH_DATE":"2021-02-04","MEAN_ELEMENT_THEORY":"SGP4","APOAPSIS":"548.209","MEAN_MOTION":"15.06398249","COUNTRY_CODE":"US","EPOCH":"2022-12-16T02:03:46.861056","MEAN_ANOMALY":"244.1131","SITE":"AFETR","NORAD_CAT_ID":"47572","TIME_SYSTEM":"UTC","RCS_SIZE":"LARGE","PERIAPSIS":"546.229","FILE":"3702730","REF_FRAME":"TEME","SEMIMAJOR_AXIS":"6925.354","MEAN_MOTION_DOT":"0.00000462","OBJECT_TYPE":"PAYLOAD","EPHEMERIS_TYPE":"0","RA_OF_ASC_NODE":"267.0734","CLASSIFICATION_TYPE":"U","MEAN_MOTION_DDOT":"0.0000000000000","ELEMENT_SET_NO":"999","REV_AT_EPOCH":"10314","CENTER_NAME":"EARTH","OBJECT_ID":"2021-009AA","GP_ID":"220583355","TLE_LINE2":"2 47572  53.0543 267.0734 0001430 116.0006 244.1131 15.06398249103140","ARG_OF_PERICENTER":"116.0006","OBJECT_NAME":"STARLINK-1971"},{"PERIOD":"95.592","DECAY_DATE":null,"ECCENTRICITY":"0.00020750","BSTAR":"0.00012805000000","TLE_LINE1":"1 47573U 21009AB  22350.79365128  .00001626  00000-0  12805-3 0  9995","MEAN_ELEMENT_THEORY":"SGP4","LAUNCH_DATE":"2021-02-04","APOAPSIS":"548.640","INCLINATION":"53.0544","COUNTRY_CODE":"US","MEAN_MOTION":"15.06403428","EPOCH":"2022-12-16T19:02:51.470592","RCS_SIZE":"LARGE","SITE":"AFETR","NORAD_CAT_ID":"47573","MEAN_ANOMALY":"286.2078","TIME_SYSTEM":"UTC","FILE":"3705029","REF_FRAME":"TEME","PERIAPSIS":"545.766","EPHEMERIS_TYPE":"0","OBJECT_TYPE":"PAYLOAD","MEAN_MOTION_DOT":"0.00001626","SEMIMAJOR_AXIS":"6925.338","ELEMENT_SET_NO":"999","MEAN_MOTION_DDOT":"0.0000000000000","CLASSIFICATION_TYPE":"U","RA_OF_ASC_NODE":"263.8825","ARG_OF_PERICENTER":"73.9140","OBJECT_NAME":"STARLINK-1975","CENTER_NAME":"EARTH","REV_AT_EPOCH":"10324","TLE_LINE2":"2 47573  53.0544 263.8825 0002075  73.9140 286.2078 15.06403428103247","OBJECT_ID":"2021-009AB","GP_ID":"220661993"},{"ARG_OF_PERICENTER":"68.5926","OBJECT_NAME":"STARLINK-1976","TLE_LINE2":"2 47574  53.0570 293.5257 0001312  68.5926 291.5203 15.06390481102838","GP_ID":"220662729","OBJECT_ID":"2021-009AC","CENTER_NAME":"EARTH","REV_AT_EPOCH":"10283","MEAN_MOTION_DDOT":"0.0000000000000","ELEMENT_SET_NO":"999","CLASSIFICATION_TYPE":"U","RA_OF_ASC_NODE":"293.5257","EPHEMERIS_TYPE":"0","MEAN_MOTION_DOT":"-0.00002209","OBJECT_TYPE":"PAYLOAD","SEMIMAJOR_AXIS":"6925.378","REF_FRAME":"TEME","FILE":"3705029","PERIAPSIS":"546.334","RCS_SIZE":"LARGE","SITE":"AFETR","NORAD_CAT_ID":"47574","MEAN_ANOMALY":"291.5203","TIME_SYSTEM":"UTC","EPOCH":"2022-12-16T21:00:58.846176","COUNTRY_CODE":"US","MEAN_MOTION":"15.06390481","APOAPSIS":"548.151","MEAN_ELEMENT_THEORY":"SGP4","LAUNCH_DATE":"2021-02-04","INCLINATION":"53.0570","DECAY_DATE":null,"PERIOD":"95.593","TLE_LINE1":"1 47574U 21009AC  22350.87568109 -.00002209  00000-0 -12946-3 0  9995","ECCENTRICITY":"0.00013120","BSTAR":"-0.00012946000000"},{"ARG_OF_PERICENTER":"64.6362","OBJECT_NAME":"STARLINK-1977","REV_AT_EPOCH":"10283","CENTER_NAME":"EARTH","GP_ID":"220661495","OBJECT_ID":"2021-009AD","TLE_LINE2":"2 47575  53.0545 293.5796 0001389  64.6362 295.4771 15.06397433102831","CLASSIFICATION_TYPE":"U","ELEMENT_SET_NO":"999","MEAN_MOTION_DDOT":"0.0000000000000","RA_OF_ASC_NODE":"293.5796","EPHEMERIS_TYPE":"0","SEMIMAJOR_AXIS":"6925.356","MEAN_MOTION_DOT":"0.00000356","OBJECT_TYPE":"PAYLOAD","FILE":"3705029","REF_FRAME":"TEME","PERIAPSIS":"546.259","EPOCH":"2022-12-16T20:45:02.588256","SITE":"AFETR","NORAD_CAT_ID":"47575","MEAN_ANOMALY":"295.4771","TIME_SYSTEM":"UTC","RCS_SIZE":"LARGE","COUNTRY_CODE":"US","MEAN_MOTION":"15.06397433","LAUNCH_DATE":"2021-02-04","MEAN_ELEMENT_THEORY":"SGP4","APOAPSIS":"548.183","INCLINATION":"53.0545","PERIOD":"95.592","DECAY_DATE":null,"BSTAR":"0.00004276800000","ECCENTRICITY":"0.00013890","TLE_LINE1":"1 47575U 21009AD  22350.86461329  .00000356  00000-0  42768-4 0  9996"},{"BSTAR":"0.00004748400000","ECCENTRICITY":"0.00014940","TLE_LINE1":"1 47576U 21009AE  22350.76508955  .00000426  00000-0  47484-4 0  9991","PERIOD":"95.592","DECAY_DATE":null,"INCLINATION":"53.0545","MEAN_ELEMENT_THEORY":"SGP4","LAUNCH_DATE":"2021-02-04","APOAPSIS":"548.254","MEAN_MOTION":"15.06398002","COUNTRY_CODE":"US","EPOCH":"2022-12-16T18:21:43.737120","MEAN_ANOMALY":"286.3363","SITE":"AFETR","NORAD_CAT_ID":"47576","TIME_SYSTEM":"UTC","RCS_SIZE":"LARGE","PERIAPSIS":"546.185","FILE":"3705029","REF_FRAME":"TEME","SEMIMAJOR_AXIS":"6925.355","OBJECT_TYPE":"PAYLOAD","MEAN_MOTION_DOT":"0.00000426","EPHEMERIS_TYPE":"0","RA_OF_ASC_NODE":"254.0310","CLASSIFICATION_TYPE":"U","ELEMENT_SET_NO":"999","MEAN_MOTION_DDOT":"0.0000000000000","REV_AT_EPOCH":"10338","CENTER_NAME":"EARTH","GP_ID":"220661240","OBJECT_ID":"2021-009AE","TLE_LINE2":"2 47576  53.0545 254.0310 0001494  73.7790 286.3363 15.06398002103389","OBJECT_NAME":"STARLINK-1978","ARG_OF_PERICENTER":"73.7790"},{"OBJECT_TYPE":"PAYLOAD","MEAN_MOTION_DOT":"0.00002882","SEMIMAJOR_AXIS":"6925.352","EPHEMERIS_TYPE":"0","PERIAPSIS":"546.250","REF_FRAME":"TEME","FILE":"3705029","TLE_LINE2":"2 47577  53.0559 268.8451 0001397  68.0914 292.0224 15.06398825103182","GP_ID":"220662494","OBJECT_ID":"2021-009AF","CENTER_NAME":"EARTH","REV_AT_EPOCH":"10318","OBJECT_NAME":"STARLINK-1979","ARG_OF_PERICENTER":"68.0914","RA_OF_ASC_NODE":"268.8451","MEAN_MOTION_DDOT":"0.0000000000000","ELEMENT_SET_NO":"999","CLASSIFICATION_TYPE":"U","INCLINATION":"53.0559","APOAPSIS":"548.185","LAUNCH_DATE":"2021-02-04","MEAN_ELEMENT_THEORY":"SGP4","TLE_LINE1":"1 47577U 21009AF  22350.80609406  .00002882  00000-0  21227-3 0  9994","ECCENTRICITY":"0.00013970","BSTAR":"0.00021227000000","DECAY_DATE":null,"PERIOD":"95.592","RCS_SIZE":"LARGE","TIME_SYSTEM":"UTC","SITE":"AFETR","NORAD_CAT_ID":"47577","MEAN_ANOMALY":"292.0224","EPOCH":"2022-12-16T19:20:46.526784","MEAN_MOTION":"15.06398825","COUNTRY_CODE":"US"},{"MEAN_ELEMENT_THEORY":"SGP4","LAUNCH_DATE":"2021-02-04","APOAPSIS":"548.061","INCLINATION":"53.0539","PERIOD":"95.592","DECAY_DATE":null,"ECCENTRICITY":"0.00012180","BSTAR":"0.00007120500000","TLE_LINE1":"1 47578U 21009AG  22350.80010492  .00000779  00000-0  71205-4 0  9991","EPOCH":"2022-12-16T19:12:09.065088","RCS_SIZE":"LARGE","SITE":"AFETR","NORAD_CAT_ID":"47578","MEAN_ANOMALY":"287.1074","TIME_SYSTEM":"UTC","COUNTRY_CODE":"US","MEAN_MOTION":"15.06398748","EPHEMERIS_TYPE":"0","MEAN_MOTION_DOT":"0.00000779","OBJECT_TYPE":"PAYLOAD","SEMIMAJOR_AXIS":"6925.352","FILE":"3705029","REF_FRAME":"TEME","PERIAPSIS":"546.374","ARG_OF_PERICENTER":"73.0048","OBJECT_NAME":"STARLINK-1980","CENTER_NAME":"EARTH","REV_AT_EPOCH":"10310","TLE_LINE2":"2 47578  53.0539 273.8729 0001218  73.0048 287.1074 15.06398748103105","GP_ID":"220662229","OBJECT_ID":"2021-009AG","ELEMENT_SET_NO":"999","MEAN_MOTION_DDOT":"0.0000000000000","CLASSIFICATION_TYPE":"U","RA_OF_ASC_NODE":"273.8729"},{"RA_OF_ASC_NODE":"263.9492","CLASSIFICATION_TYPE":"U","ELEMENT_SET_NO":"999","MEAN_MOTION_DDOT":"0.0000000000000","REV_AT_EPOCH":"10324","CENTER_NAME":"EARTH","OBJECT_ID":"2021-009AH","GP_ID":"220660995","TLE_LINE2":"2 47579  53.0554 263.9492 0001716  60.9272 299.1888 15.06406049103242","ARG_OF_PERICENTER":"60.9272","OBJECT_NAME":"STARLINK-1981","PERIAPSIS":"546.007","FILE":"3705029","REF_FRAME":"TEME","SEMIMAJOR_AXIS":"6925.330","OBJECT_TYPE":"PAYLOAD","MEAN_MOTION_DOT":"0.00000828","EPHEMERIS_TYPE":"0","MEAN_MOTION":"15.06406049","COUNTRY_CODE":"US","EPOCH":"2022-12-16T18:46:55.925472","SITE":"AFETR","NORAD_CAT_ID":"47579","MEAN_ANOMALY":"299.1888","TIME_SYSTEM":"UTC","RCS_SIZE":"LARGE","BSTAR":"0.00007448000000","ECCENTRICITY":"0.00017160","TLE_LINE1":"1 47579U 21009AH  22350.78259173  .00000828  00000-0  74480-4 0  9993","PERIOD":"95.592","DECAY_DATE":null,"INCLINATION":"53.0554","LAUNCH_DATE":"2021-02-04","MEAN_ELEMENT_THEORY":"SGP4","APOAPSIS":"548.383"},{"BSTAR":"0.00015418000000","ECCENTRICITY":"0.00020700","TLE_LINE1":"1 47580U 21009AJ  22350.80378881  .00002016  00000-0  15418-3 0  9992","PERIOD":"95.592","DECAY_DATE":null,"INCLINATION":"53.0547","LAUNCH_DATE":"2021-02-04","MEAN_ELEMENT_THEORY":"SGP4","APOAPSIS":"548.639","MEAN_MOTION":"15.06402598","COUNTRY_CODE":"US","EPOCH":"2022-12-16T19:17:27.353184","SITE":"AFETR","TIME_SYSTEM":"UTC","NORAD_CAT_ID":"47580","MEAN_ANOMALY":"285.1813","RCS_SIZE":"LARGE","PERIAPSIS":"545.772","FILE":"3705029","REF_FRAME":"TEME","SEMIMAJOR_AXIS":"6925.341","OBJECT_TYPE":"PAYLOAD","MEAN_MOTION_DOT":"0.00002016","EPHEMERIS_TYPE":"0","RA_OF_ASC_NODE":"273.8365","CLASSIFICATION_TYPE":"U","MEAN_MOTION_DDOT":"0.0000000000000","ELEMENT_SET_NO":"999","REV_AT_EPOCH":"10310","CENTER_NAME":"EARTH","GP_ID":"220661741","OBJECT_ID":"2021-009AJ","TLE_LINE2":"2 47580  53.0547 273.8365 0002070  74.9405 285.1813 15.06402598103105","OBJECT_NAME":"STARLINK-1982","ARG_OF_PERICENTER":"74.9405"}];
